QIANFAN-41              
1 62242U 24232F   25224.55522796  .00000052  00000+0  62337-4 0  9996
2 62242  88.9929  53.5423 0013951 176.4635 183.6617 13.50960383 82758
QIANFAN-42              
1 62243U 24232G   25224.53779181  .00000143  00000+0  55541-4 0  9997
2 62243  88.9928  51.3283 0016997 119.8420 240.4464 14.24336521 83974
QIANFAN-43              
1 62244U 24232H   25224.55111850  .00000046  00000+0  51898-4 0  9996
2 62244  88.9934  53.6027 0015262 182.4952 177.6125 13.50953123 51367
QIANFAN-44              
1 62245U 24232J   25224.53878379  .00000040  00000+0  42626-4 0  9994
2 62245  88.9932  53.4165 0013583 178.6059 181.5132 13.50963084 82831
QIANFAN-45              
1 62246U 24232K   25224.57993156  .00000029  00000+0  25616-4 0  9997
2 62246  88.9936  53.5546 0014256 178.5716 181.5479 13.50958831 82767
QIANFAN-46              
1 62247U 24232L   25224.60460550  .00000029  00000+0  26890-4 0  9994
2 62247  88.9932  53.6261 0014127 184.0376 176.0663 13.50960870 82726
QIANFAN-47              
1 62248U 24232M   25224.60864889  .00000028  00000+0  24446-4 0  9992
2 62248  88.9928  53.5636 0014578 183.3675 176.7381 13.50960615 82755
QIANFAN-48              
1 62249U 24232N   25224.57169897  .00000044  00000+0  49823-4 0  9990
2 62249  88.9932  53.5643 0016743 187.2087 172.8826 13.50963567 82755
